{
  "type": "FeatureCollection",
  "features": [
    {
      "type": "Feature",
      "properties": {
        "norad_id": 30758,
        "name": "FENGYUN 1C DEB",
        "group": "fengyun-1c-debris",
        "lat": 22.31278661504067,
        "lon": 94.05382082432465,
        "alt_km": 807.0533413992935,
        "timestamp": "2025-12-05T04:52:15.570696+00:00",
        "meta_object_name": "FENGYUN 1C DEB",
        "meta_object_id": "1999-025ATU",
        "meta_epoch": "2025-12-04T14:06:54.550368",
        "meta_mean_motion": 14.17057093,
        "meta_eccentricity": 0.0038677,
        "meta_inclination": 99.0187,
        "meta_ra_of_asc_node": 97.1676,
        "meta_arg_of_pericenter": 27.2129,
        "meta_mean_anomaly": 100.7809,
        "meta_ephemeris_type": 0,
        "meta_classification_type": "U",
        "meta_norad_cat_id": 30758,
        "meta_element_set_no": 999,
        "meta_rev_at_epoch": 96375,
        "meta_bstar": 0.0021289,
        "meta_mean_motion_dot": 4.27e-05,
        "meta_mean_motion_ddot": 0,
        "tle_line1": "1 30758U 99025ATU 25338.58813137  .00004270  00000+0  21289-2 0  9991",
        "tle_line2": "2 30758  99.0187  97.1676 0038677  27.2129 100.7809 14.17057093963751"
      },
      "geometry": {
        "type": "Point",
        "coordinates": [
          94.05382082432465,
          22.31278661504067
        ]
      }
    },
    {
      "type": "Feature",
      "properties": {
        "norad_id": 30759,
        "name": "FENGYUN 1C DEB",
        "group": "fengyun-1c-debris",
        "lat": 28.92885915128209,
        "lon": -88.66377968277983,
        "alt_km": 704.722194160262,
        "timestamp": "2025-12-05T04:52:15.570705+00:00",
        "meta_object_name": "FENGYUN 1C DEB",
        "meta_object_id": "1999-025ATV",
        "meta_epoch": "2025-12-04T07:00:25.013088",
        "meta_mean_motion": 14.54217631,
        "meta_eccentricity": 0.0009611,
        "meta_inclination": 99.2571,
        "meta_ra_of_asc_node": 85.1578,
        "meta_arg_of_pericenter": 187.8962,
        "meta_mean_anomaly": 236.0972,
        "meta_ephemeris_type": 0,
        "meta_classification_type": "U",
        "meta_norad_cat_id": 30759,
        "meta_element_set_no": 999,
        "meta_rev_at_epoch": 97532,
        "meta_bstar": 0.0069968,
        "meta_mean_motion_dot": 0.00029727,
        "meta_mean_motion_ddot": 0,
        "tle_line1": "1 30759U 99025ATV 25338.29195617  .00029727  00000+0  69968-2 0  9996",
        "tle_line2": "2 30759  99.2571  85.1578 0009611 187.8962 236.0972 14.54217631975320"
      },
      "geometry": {
        "type": "Point",
        "coordinates": [
          -88.66377968277983,
          28.92885915128209
        ]
      }
    },
    {
      "type": "Feature",
      "properties": {
        "norad_id": 30760,
        "name": "FENGYUN 1C DEB",
        "group": "fengyun-1c-debris",
        "lat": 78.72196351480257,
        "lon": -75.05694192130083,
        "alt_km": 860.5214630346045,
        "timestamp": "2025-12-05T04:52:15.570714+00:00",
        "meta_object_name": "FENGYUN 1C DEB",
        "meta_object_id": "1999-025ATW",
        "meta_epoch": "2025-12-04T13:06:02.005920",
        "meta_mean_motion": 14.05171247,
        "meta_eccentricity": 0.0053184,
        "meta_inclination": 98.822,
        "meta_ra_of_asc_node": 335.4501,
        "meta_arg_of_pericenter": 6.5602,
        "meta_mean_anomaly": 353.6251,
        "meta_ephemeris_type": 0,
        "meta_classification_type": "U",
        "meta_norad_cat_id": 30760,
        "meta_element_set_no": 999,
        "meta_rev_at_epoch": 96107,
        "meta_bstar": 0.00036229,
        "meta_mean_motion_dot": 5.49e-06,
        "meta_mean_motion_ddot": 0,
        "tle_line1": "1 30760U 99025ATW 25338.54585655  .00000549  00000+0  36229-3 0  9997",
        "tle_line2": "2 30760  98.8220 335.4501 0053184   6.5602 353.6251 14.05171247961078"
      },
      "geometry": {
        "type": "Point",
        "coordinates": [
          -75.05694192130083,
          78.72196351480257
        ]
      }
    },
    {
      "type": "Feature",
      "properties": {
        "norad_id": 30761,
        "name": "FENGYUN 1C DEB",
        "group": "fengyun-1c-debris",
        "lat": 79.46485429716613,
        "lon": -153.09373189483955,
        "alt_km": 784.1452688456611,
        "timestamp": "2025-12-05T04:52:15.570723+00:00",
        "meta_object_name": "FENGYUN 1C DEB",
        "meta_object_id": "1999-025ATX",
        "meta_epoch": "2025-12-04T11:45:20.060928",
        "meta_mean_motion": 14.35687804,
        "meta_eccentricity": 0.0085107,
        "meta_inclination": 98.9653,
        "meta_ra_of_asc_node": 264.2532,
        "meta_arg_of_pericenter": 338.1025,
        "meta_mean_anomaly": 21.653,
        "meta_ephemeris_type": 0,
        "meta_classification_type": "U",
        "meta_norad_cat_id": 30761,
        "meta_element_set_no": 999,
        "meta_rev_at_epoch": 97623,
        "meta_bstar": 0.0024503,
        "meta_mean_motion_dot": 7.331e-05,
        "meta_mean_motion_ddot": 0,
        "tle_line1": "1 30761U 99025ATX 25338.48981552  .00007331  00000+0  24503-2 0  9994",
        "tle_line2": "2 30761  98.9653 264.2532 0085107 338.1025  21.6530 14.35687804976236"
      },
      "geometry": {
        "type": "Point",
        "coordinates": [
          -153.09373189483955,
          79.46485429716613
        ]
      }
    },
    {
      "type": "Feature",
      "properties": {
        "norad_id": 30762,
        "name": "FENGYUN 1C DEB",
        "group": "fengyun-1c-debris",
        "lat": -15.224436705499508,
        "lon": 147.79702901687168,
        "alt_km": 976.5569734831543,
        "timestamp": "2025-12-05T04:52:15.570732+00:00",
        "meta_object_name": "FENGYUN 1C DEB",
        "meta_object_id": "1999-025ATY",
        "meta_epoch": "2025-12-04T05:40:57.309888",
        "meta_mean_motion": 13.98068438,
        "meta_eccentricity": 0.0198095,
        "meta_inclination": 98.8735,
        "meta_ra_of_asc_node": 329.299,
        "meta_arg_of_pericenter": 318.6469,
        "meta_mean_anomaly": 58.4401,
        "meta_ephemeris_type": 0,
        "meta_classification_type": "U",
        "meta_norad_cat_id": 30762,
        "meta_element_set_no": 999,
        "meta_rev_at_epoch": 95519,
        "meta_bstar": 0.00093732,
        "meta_mean_motion_dot": 1.531e-05,
        "meta_mean_motion_ddot": 0,
        "tle_line1": "1 30762U 99025ATY 25338.23677442  .00001531  00000+0  93732-3 0  9995",
        "tle_line2": "2 30762  98.8735 329.2990 0198095 318.6469  58.4401 13.98068438955194"
      },
      "geometry": {
        "type": "Point",
        "coordinates": [
          147.79702901687168,
          -15.224436705499508
        ]
      }
    },
    {
      "type": "Feature",
      "properties": {
        "norad_id": 30763,
        "name": "FENGYUN 1C DEB",
        "group": "fengyun-1c-debris",
        "lat": 7.25298855089119,
        "lon": -128.8447006827449,
        "alt_km": 700.5562252969858,
        "timestamp": "2025-12-05T04:52:15.570741+00:00",
        "meta_object_name": "FENGYUN 1C DEB",
        "meta_object_id": "1999-025ATZ",
        "meta_epoch": "2025-12-04T10:35:01.529088",
        "meta_mean_motion": 14.60575377,
        "meta_eccentricity": 0.0022356,
        "meta_inclination": 98.8939,
        "meta_ra_of_asc_node": 49.1958,
        "meta_arg_of_pericenter": 293.5357,
        "meta_mean_anomaly": 194.9585,
        "meta_ephemeris_type": 0,
        "meta_classification_type": "U",
        "meta_norad_cat_id": 30763,
        "meta_element_set_no": 999,
        "meta_rev_at_epoch": 97023,
        "meta_bstar": 0.011799,
        "meta_mean_motion_dot": 0.00057972,
        "meta_mean_motion_ddot": 0,
        "tle_line1": "1 30763U 99025ATZ 25338.44098992  .00057972  00000+0  11799-1 0  9997",
        "tle_line2": "2 30763  98.8939  49.1958 0022356 293.5357 194.9585 14.60575377970232"
      },
      "geometry": {
        "type": "Point",
        "coordinates": [
          -128.8447006827449,
          7.25298855089119
        ]
      }
    },
    {
      "type": "Feature",
      "properties": {
        "norad_id": 30764,
        "name": "FENGYUN 1C DEB",
        "group": "fengyun-1c-debris",
        "lat": 3.8027647102493973,
        "lon": -52.064668696470626,
        "alt_km": 533.9969321589952,
        "timestamp": "2025-12-05T04:52:15.570750+00:00",
        "meta_object_name": "FENGYUN 1C DEB",
        "meta_object_id": "1999-025AUA",
        "meta_epoch": "2025-12-03T21:25:38.268192",
        "meta_mean_motion": 15.28259527,
        "meta_eccentricity": 0.00759443,
        "meta_inclination": 98.7769,
        "meta_ra_of_asc_node": 306.9816,
        "meta_arg_of_pericenter": 200.5077,
        "meta_mean_anomaly": 159.3106,
        "meta_ephemeris_type": 0,
        "meta_classification_type": "U",
        "meta_norad_cat_id": 30764,
        "meta_element_set_no": 999,
        "meta_rev_at_epoch": 1087,
        "meta_bstar": 0.0017277714,
        "meta_mean_motion_dot": 0.00052053,
        "meta_mean_motion_ddot": 0,
        "tle_line1": "1 30764U 99025AUA 25337.89280403  .00052053  00000+0  17278-2 0  9990",
        "tle_line2": "2 30764  98.7769 306.9816 0075944 200.5077 159.3106 15.28259527 10878"
      },
      "geometry": {
        "type": "Point",
        "coordinates": [
          -52.064668696470626,
          3.8027647102493973
        ]
      }
    }
  ]
}